NORAD_CAT_ID,OBJECT_NAME,OBJECT_TYPE,EPOCH,MEAN_MOTION,ECCENTRICITY,INCLINATION,RA_OF_ASC_NODE,ARG_OF_PERICENTER,MEAN_ANOMALY,BSTAR,MEAN_MOTION_DOT,MEAN_MOTION_DDOT,TLE_LINE0,TLE_LINE1,TLE_LINE2,SEMIMAJOR_AXIS,PERIOD,APOGEE,PERIGEE,DECAYED
52355.0,STARLINK-3877,PAYLOAD,2024-08-19 11:24:17,15.08833015,0.0001483,53.2148,225.4461,84.9273,275.1889,7.2239e-05,8.62e-06,0.0,0 STARLINK-3877,1 52355U 22045AA  24232.47519682  .00000862  00000-0  72239-4 0  9991,2 52355  53.2148 225.4461 0001483  84.9273 275.1889 15.08833015130152,6917.902,95.438,540.793,538.741,0.0
52355.0,STARLINK-3877,PAYLOAD,2024-08-20 04:53:31,15.08840153,0.0001482,53.2148,222.1751,85.9515,274.1647,9.6066e-05,1.241e-05,0.0,0 STARLINK-3877,1 52355U 22045AA  24233.20383451  .00001241  00000-0  96066-4 0  9992,2 52355  53.2148 222.1751 0001482  85.9515 274.1647 15.08840153130261,6917.88,95.438,540.77,538.72,0.0
52355.0,STARLINK-3877,PAYLOAD,2024-08-20 06:28:54,15.08841806,0.0001481,53.2148,221.8782,87.3198,272.7964,0.00011913,1.609e-05,0.0,0 STARLINK-3877,1 52355U 22045AA  24233.27007355  .00001609  00000-0  11913-3 0  9990,2 52355  53.2148 221.8782 0001481  87.3198 272.7964 15.08841806130276,6917.875,95.437,540.764,538.715,0.0
52355.0,STARLINK-3877,PAYLOAD,2024-08-21 09:30:27,15.0883844,0.0001472,53.2145,216.8233,88.7514,271.3646,0.00013431,1.85e-05,0.0,0 STARLINK-3877,1 52355U 22045AA  24234.39615717  .00001850  00000-0  13431-3 0  9996,2 52355  53.2145 216.8233 0001472  88.7514 271.3646 15.08838440130446,6917.885,95.438,540.768,538.732,0.0
